OBJECT_NAME,OBJECT_ID,EPOCH,MEAN_MOTION,ECCENTRICITY,INCLINATION,RA_OF_ASC_NODE,ARG_OF_PERICENTER,MEAN_ANOMALY,EPHEMERIS_TYPE,CLASSIFICATION_TYPE,NORAD_CAT_ID,ELEMENT_SET_NO,REV_AT_EPOCH,BSTAR,MEAN_MOTION_DOT,MEAN_MOTION_DDOT
QB50P1,2014-033R,2026-07-16T14:32:28.363776,15.18678566,.0010431,98.0963,210.8240,120.5690,239.6573,0,U,40025,999,65749,.21031E-3,.4288E-4,0
DTUSAT-2,2014-033W,2026-07-16T22:55:56.464032,15.15364990,.0009408,98.0876,197.5823,126.6687,233.5410,0,U,40030,999,65719,.21093E-3,.3907E-4,0
QB50P2,2014-033Y,2026-07-16T22:43:30.768096,15.15520360,.0009271,98.0763,196.6896,79.0258,281.2015,0,U,40032,999,65717,.22476E-3,.4187E-4,0
PERSEUS-M1,2014-033AF,2026-07-16T19:21:58.154976,14.95719308,.0011012,97.9654,142.4284,190.7598,169.3388,0,U,40039,999,65506,.90612E-4,.949E-5,0
POLYITAN-1,2014-033AJ,2026-07-16T14:32:41.120736,15.34251009,.0007762,98.0930,226.6719,60.1864,300.0148,0,U,40042,999,65810,.32851E-3,.10814E-3,0
TIGRISAT,2014-033AK,2026-07-16T10:08:20.504256,14.85251528,.0048535,97.7866,346.7713,340.2740,19.6596,0,U,40043,999,64996,.85612E-4,.694E-5,0
CANX-4,2014-034C,2026-07-17T03:27:04.820256,14.81313013,.0011373,98.3080,74.5514,275.8115,84.1800,0,U,40055,999,64896,.56174E-4,.381E-5,0
CANX-5,2014-034D,2026-07-17T03:24:19.209600,14.81330365,.0011375,98.3083,74.5947,276.0834,83.9082,0,U,40056,999,63977,.56082E-4,.381E-5,0
GONETS-M 10,2014-036C,2026-07-17T04:11:55.777632,12.42946567,.0022921,82.5127,289.0498,78.3456,282.0194,0,U,40063,999,54597,.87944E-3,.132E-5,0
METEOR-M 2,2014-037A,2026-07-17T04:50:57.375744,14.21470186,.0005059,98.5131,172.8808,320.5907,39.4902,0,U,40069,999,62358,.14525E-3,.276E-5,0
DX1,2014-037C,2026-07-17T04:15:45.878112,14.90063436,.0007268,98.3881,161.7039,164.1024,196.0421,0,U,40071,999,65057,.72156E-4,.634E-5,0
UKUBE-1,2014-037F,2026-07-16T23:30:53.043840,15.13965427,.0003222,98.4243,204.3928,84.6654,275.4942,0,U,40074,999,65306,.25063E-3,.4467E-4,0
GAOFEN-2,2014-049A,2026-07-17T04:13:32.937024,14.80927361,.0008361,98.0096,262.3524,129.0712,231.1245,0,U,40118,999,64367,-.26962E-4,-.262E-5,0
BRITE-PL2 (HEWELIUSZ),2014-049B,2026-07-16T21:31:13.773216,14.94689258,.0014172,97.9120,310.1310,16.6624,343.5058,0,U,40119,999,64588,.50495E-4,.489E-5,0
CBERS 4,2014-079A,2026-07-17T05:14:01.344768,14.35515913,.0000691,98.3515,254.1051,56.5115,303.6137,0,U,40336,999,60826,-.1888E-4,-.97E-6,0
SMAP,2015-003A,2026-07-17T03:57:55.458144,14.63390021,.0001612,98.1285,204.8362,94.1479,265.9907,0,U,40376,999,61200,.40846E-4,.164E-5,0
GONETS-M 11,2015-020A,2026-07-17T04:40:42.968064,12.42878289,.0015349,82.4862,12.2885,298.6553,61.2983,0,U,40552,999,51246,-.79078E-3,-.1E-5,0
GONETS-M 12,2015-020B,2026-07-17T04:02:04.833600,12.42891528,.0014232,82.4895,13.4370,282.5109,77.4379,0,U,40553,999,51245,-.13258E-2,-.174E-5,0
GONETS-M 13,2015-020C,2026-07-17T05:20:31.820928,12.42871872,.0012793,82.4859,12.0094,266.1620,93.7997,0,U,40554,999,51243,-.23051E-3,-.22E-6,0
DMC3-FM1,2015-032A,2026-07-17T04:11:52.712160,14.85768793,.0004713,97.6420,62.1683,330.1973,29.8974,0,U,40715,999,59436,.64249E-4,.507E-5,0
DMC3-FM2,2015-032B,2026-07-17T04:43:27.115968,14.85778337,.0005349,97.6475,63.7837,335.9144,24.1821,0,U,40716,999,59436,.12434E-3,.1029E-4,0
DMC3-FM3,2015-032C,2026-07-17T03:40:22.560096,14.85763786,.0004643,97.6526,65.5137,338.3697,21.7322,0,U,40717,999,59436,-.22451E-5,-.71E-6,0
CARBONITE 1 (CBNT-1),2015-032D,2026-07-17T04:40:43.328352,14.83672709,.0014015,97.6517,15.0076,190.1414,169.9519,0,U,40718,999,59379,.15256E-3,.1211E-4,0
LILACSAT-2,2015-049K,2026-07-17T04:33:26.493408,15.52404529,.0008504,97.4622,236.1867,135.6290,224.5645,0,U,40908,999,60040,.17391E-3,.10529E-3,0
COSMOS 2507 (RODNIK-S 13),2015-050A,2026-07-17T04:13:39.233856,12.42927768,.0008982,82.4902,60.9960,288.3889,71.6213,0,U,40920,999,49058,.42036E-3,.68E-6,0
COSMOS 2508 (RODNIK-S 14),2015-050B,2026-07-17T05:05:12.075648,12.42915365,.0013853,82.4854,59.4672,322.3073,37.7035,0,U,40921,999,49057,.27766E-3,.48E-6,0
COSMOS 2509 (RODNIK-S 15),2015-050C,2026-07-17T03:39:37.996704,12.42884664,.0014507,82.4862,59.6096,339.9093,20.1414,0,U,40922,999,49060,-.47416E-4,.3E-7,0
