QB50P1                  
1 40025U 14033R   26197.60588384  .00004288  00000+0  21031-3 0  9990
2 40025  98.0963 210.8240 0010431 120.5690 239.6573 15.18678566657496
DTUSAT-2                
1 40030U 14033W   26197.95551463  .00003907  00000+0  21093-3 0  9997
2 40030  98.0876 197.5823 0009408 126.6687 233.5410 15.15364990657198
QB50P2                  
1 40032U 14033Y   26197.94688389  .00004187  00000+0  22476-3 0  9993
2 40032  98.0763 196.6896 0009271  79.0258 281.2015 15.15520360657172
PERSEUS-M1              
1 40039U 14033AF  26197.80692309  .00000949  00000+0  90612-4 0  9992
2 40039  97.9654 142.4284 0011012 190.7598 169.3388 14.95719308655064
POLYITAN-1              
1 40042U 14033AJ  26197.60603149  .00010814  00000+0  32851-3 0  9990
2 40042  98.0930 226.6719 0007762  60.1864 300.0148 15.34251009658107
TIGRISAT                
1 40043U 14033AK  26197.42245954  .00000694  00000+0  85612-4 0  9996
2 40043  97.7866 346.7713 0048535 340.2740  19.6596 14.85251528649963
CANX-4                  
1 40055U 14034C   26198.14380579  .00000381  00000+0  56174-4 0  9997
2 40055  98.3080  74.5514 0011373 275.8115  84.1800 14.81313013648963
CANX-5                  
1 40056U 14034D   26198.14188900  .00000381  00000+0  56082-4 0  9990
2 40056  98.3083  74.5947 0011375 276.0834  83.9082 14.81330365639777
GONETS-M 10             
1 40063U 14036C   26198.17495113  .00000132  00000+0  87944-3 0  9994
2 40063  82.5127 289.0498 0022921  78.3456 282.0194 12.42946567545971
METEOR-M 2              
1 40069U 14037A   26198.20205296  .00000276  00000+0  14525-3 0  9990
2 40069  98.5131 172.8808 0005059 320.5907  39.4902 14.21470186623582
DX1                     
1 40071U 14037C   26198.17761433  .00000634  00000+0  72156-4 0  9992
2 40071  98.3881 161.7039 0007268 164.1024 196.0421 14.90063436650571
UKUBE-1                 
1 40074U 14037F   26197.97978060  .00004467  00000+0  25063-3 0  9990
2 40074  98.4243 204.3928 0003222  84.6654 275.4942 15.13965427653063
GAOFEN-2                
1 40118U 14049A   26198.17607566 -.00000262  00000+0 -26962-4 0  9996
2 40118  98.0096 262.3524 0008361 129.0712 231.1245 14.80927361643677
BRITE-PL2 (HEWELIUSZ)   
1 40119U 14049B   26197.89668719  .00000489  00000+0  50495-4 0  9999
2 40119  97.9120 310.1310 0014172  16.6624 343.5058 14.94689258645889
CBERS 4                 
1 40336U 14079A   26198.21807112 -.00000097  00000+0 -18880-4 0  9991
2 40336  98.3515 254.1051 0000691  56.5115 303.6137 14.35515913608268
SMAP                    
1 40376U 15003A   26198.16522521  .00000164  00000+0  40846-4 0  9995
2 40376  98.1285 204.8362 0001612  94.1479 265.9907 14.63390021612000
GONETS-M 11             
1 40552U 15020A   26198.19494176 -.00000100  00000+0 -79078-3 0  9997
2 40552  82.4862  12.2885 0015349 298.6553  61.2983 12.42878289512462
GONETS-M 12             
1 40553U 15020B   26198.16811150 -.00000174  00000+0 -13258-2 0  9998
2 40553  82.4895  13.4370 0014232 282.5109  77.4379 12.42891528512458
GONETS-M 13             
1 40554U 15020C   26198.22259052 -.00000022  00000+0 -23051-3 0  9998
2 40554  82.4859  12.0094 0012793 266.1620  93.7997 12.42871872512438
DMC3-FM1                
1 40715U 15032A   26198.17491565  .00000507  00000+0  64249-4 0  9992
2 40715  97.6420  62.1683 0004713 330.1973  29.8974 14.85768793594368
DMC3-FM2                
1 40716U 15032B   26198.19684162  .00001029  00000+0  12434-3 0  9990
2 40716  97.6475  63.7837 0005349 335.9144  24.1821 14.85778337594360
DMC3-FM3                
1 40717U 15032C   26198.15303889 -.00000071  00000+0 -22451-5 0  9991
2 40717  97.6526  65.5137 0004643 338.3697  21.7322 14.85763786594368
CARBONITE 1 (CBNT-1)    
1 40718U 15032D   26198.19494593  .00001211  00000+0  15256-3 0  9997
2 40718  97.6517  15.0076 0014015 190.1414 169.9519 14.83672709593797
LILACSAT-2              
1 40908U 15049K   26198.18988997  .00010529  00000+0  17391-3 0  9995
2 40908  97.4622 236.1867 0008504 135.6290 224.5645 15.52404529600404
COSMOS 2507 (RODNIK-S *)
1 40920U 15050A   26198.17614854  .00000068  00000+0  42036-3 0  9999
2 40920  82.4902  60.9960 0008982 288.3889  71.6213 12.42927768490589
COSMOS 2508 (RODNIK-S *)
1 40921U 15050B   26198.21194532  .00000048  00000+0  27766-3 0  9992
2 40921  82.4854  59.4672 0013853 322.3073  37.7035 12.42915365490570
COSMOS 2509 (RODNIK-S *)
1 40922U 15050C   26198.15252311  .00000003  00000+0 -47416-4 0  9993
2 40922  82.4862  59.6096 0014507 339.9093  20.1414 12.42884664490603
